name,local_address,principle_address,type,secstaff_reg_url,latitude,longitude
ABC BANKING CORPORATION LTD,"LEVEL 16, NEXXUS BUILDING, 41 CONNAUGHT ROAD CENTRAL, HONG KONG","7 DUKE OF EDINBURGH AVENUE, PLACE D' ARMES, 11328, PORT LOUIS, MAURITIUS",Local Representative Office,,22.284365654606,114.15656383984
ACCESS BANK UK LIMITED (THE),APPROVED BUT NOT YET OPENED,"4 ROYAL COURT, GADBROOK WAY, GADBROOK PARK, NORTHWICH, CHESHIRE, CW9 7UT, UNITED KINGDOM",Restricted Licence Bank,,,
AGRICULTURAL BANK OF CHINA LIMITED,"25/F, AGRICULTURAL BANK OF CHINA TOWER, 50 CONNAUGHT ROAD CENTRAL, HONG KONG.","NO. 69, JIANGUOMEN NEI AVENUE, DONGCHENG DISTRICT, BEIJING, P.R. CHINA",Licensed Bank,http://apps.hkma.gov.hk/eng/index.php?c=search&m=search_by_institution&ri=100235,22.2854192839705,114.155976696388
AIRSTAR BANK LIMITED,"SUITES 3201-07, 32/F, TOWER 5, THE GATEWAY, HARBOUR CITY, TSIM SHA TSUI, KOWLOON",,Licensed Bank,http://apps.hkma.gov.hk/eng/index.php?c=search&m=search_by_institution&ri=100329,22.2979939782603,114.167978967553
ALLIED BANKING CORPORATION (HONG KONG) LIMITED,"1402 WORLD-WIDE HOUSE, 19 DES VOEUX ROAD CENTRAL, HONG KONG.",,Restricted Licence Bank,,22.2825760359348,114.157792819561
ANT BANK (HONG KONG) LIMITED,"SUITES 2312-13, 23/F, TOWER ONE, TIMES SQUARE, 1 MATHESON STREET, CAUSEWAY BAY, HONG KONG",,Licensed Bank,,22.2786736827041,114.182316538718
"ASHIKAGA BANK, LTD. (THE)","SUITE 1601, 16/F, TOWER 2, THE GATEWAY, HARBOUR CITY, TSIM SHA TSUI, KOWLOON","1-25 SAKURA 4-CHOME, UTSUNOMIYA, TOCHIGI PREFECTURE 320-8610, JAPAN.",Local Representative Office,,22.2994410532312,114.167698725224
AUSTRALIA AND NEW ZEALAND BANKING GROUP LIMITED,"20/F-22/F, THREE EXCHANGE SQUARE, 8 CONNAUGHT PLACE, CENTRAL, HONG KONG.","100 QUEEN STREET, MELBOURNE, VICTORIA 3000, AUSTRALIA.",Licensed Bank,http://apps.hkma.gov.hk/eng/index.php?c=search&m=search_by_institution&ri=100164,22.2847046142116,114.157399564143
BANC OF AMERICA SECURITIES ASIA LIMITED,"52/F, CHEUNG KONG CENTER, 2 QUEEN'S ROAD CENTRAL, CENTRAL, HONG KONG.",,Restricted Licence Bank,http://apps.hkma.gov.hk/eng/index.php?c=search&m=search_by_institution&ri=200017,22.2797945534004,114.160541838718
BANCO BILBAO VIZCAYA ARGENTARIA S.A.,"UNIT 9507, LEVEL 95, INTERNATIONAL COMMERCE CENTRE, 1 AUSTIN ROAD WEST, KOWLOON.","CARRERA DE SAN JERONIMO, 36 28014 MADRID, SPAIN.",Licensed Bank,http://apps.hkma.gov.hk/eng/index.php?c=search&m=search_by_institution&ri=100157,22.3036215555103,114.160244340565
BANCO BPM SOCIETA' PER AZIONI,"SUITE 3205, CENTRAL PLAZA, 18 HARBOUR ROAD, WAN CHAI, HONG KONG.","PIAZZA NOGARA 2, 37100 VERONA, ITALY.",Local Representative Office,,22.2799081642232,114.173729903384
BANCO BRADESCO S.A.,"SUITE 3516, TWO INTERNATIONAL FINANCE CENTRE, 8 FINANCE STREET, CENTRAL, HONG KONG","CIDADE DE DEUS, S/N, VILA YARA, OSASCO, SP, CEP 06029-900, BRAZIL",Local Representative Office,,22.2852777834008,114.159257836305
"BANCO SANTANDER, S.A.","10/F, TWO INTERNATIONAL FINANCE CENTRE, 8 FINANCE STREET, CENTRAL, HONG KONG.","PASEO DE PEREDA 9-12, SANTANDER, 39004, SPAIN.",Licensed Bank,http://apps.hkma.gov.hk/eng/index.php?c=search&m=search_by_institution&ri=100289,22.2855138190291,114.15928617494
BANCO SECURITY,"SUITE 2407, 9 QUEEN'S ROAD CENTRAL, HONG KONG.","AV. APOQUINDO 3150, LAS CONDES, SANTIAGO, CHILE.",Local Representative Office,,22.2803058797075,114.158685138718
BANGKOK BANK PUBLIC COMPANY LIMITED,"BANGKOK BANK BUILDING, 28 DES VOEUX ROAD, CENTRAL, HONG KONG.","333 SILOM ROAD, BANGKOK 10500, THAILAND.",Licensed Bank,,22.2829748074669,114.156923549934
BANK J. SAFRA SARASIN AG,"40/F, EDINBURGH TOWER, THE LANDMARK, 15 QUEEN'S ROAD CENTRAL, HONG KONG.","ELISABETHENSTRASSE 62, POSTFACH, CH-4002 BASEL, SWITZERLAND.",Licensed Bank,http://apps.hkma.gov.hk/eng/index.php?c=search&m=search_by_institution&ri=100297,22.2807749796378,114.157917450082
BANK JULIUS BAER & CO. LTD.,"39/F, ONE INTERNATIONAL FINANCE CENTRE, 1 HARBOUR VIEW STREET, CENTRAL, HONG KONG.","BAHNHOFSTRASSE 36, CH-8010 ZURICH, SWITZERLAND.",Licensed Bank,http://apps.hkma.gov.hk/eng/index.php?c=search&m=search_by_institution&ri=100301,22.2850431645719,114.156918525224
"BANK OF AMERICA, NATIONAL ASSOCIATION","52/F, CHEUNG KONG CENTER, 2 QUEEN'S ROAD CENTRAL, CENTRAL, HONG KONG.","100 NORTH TRYON STREET, 18/F, CHARLOTTE, NORTH CAROLINA 28255.",Licensed Bank,http://apps.hkma.gov.hk/eng/index.php?c=search&m=search_by_institution&ri=100045,22.2798839040963,114.160541838718
"BANK OF BEIJING CO., LTD.","UNIT 5601, 56/F, THE CENTER, NO. 99 QUEEN'S ROAD CENTRAL, HONG KONG","GROUND FLOOR, JIA NO.17, FINANCIAL STREET, XICHENG DISTRICT, BEIJING, PRC.",Local Representative Office,,22.2845990521876,114.154739996388
BANK OF CHINA (HONG KONG) LIMITED,"14TH FLOOR, BANK OF CHINA TOWER, NO.1 GARDEN ROAD, HONG KONG.",,Licensed Bank,http://apps.hkma.gov.hk/eng/index.php?c=search&m=search_by_institution&ri=100072,22.2795425489391,114.161493096388
BANK OF CHINA INTERNATIONAL LIMITED,"2/F & 3/F, BANK OF CHINA BUILDING, 2A DES VOEUX ROAD CENTRAL, HONG KONG",,Restricted Licence Bank,http://apps.hkma.gov.hk/eng/index.php?c=search&m=search_by_institution&ri=200069,22.2802537910159,114.160114267553
BANK OF CHINA LIMITED,"7/F, BANK OF CHINA TOWER, 1 GARDEN ROAD, CENTRAL, HONG KONG.","1 FUXINGMEN NEI DAJIE, BEIJING 100818, CHINA.",Licensed Bank,http://apps.hkma.gov.hk/eng/index.php?c=search&m=search_by_institution&ri=100011,22.2794281237958,114.16145653695
BANK OF COMMUNICATIONS (HONG KONG) LIMITED,"UNIT B B/F & G/F, UNIT C G/F, 1-3/F, 16/F ROOM 01 & 18/F, WHEELOCK HOUSE, 20 PEDDER STREET, CENTRAL, HONG KONG",,Licensed Bank,http://apps.hkma.gov.hk/eng/index.php?c=search&m=search_by_institution&ri=100320,22.2822187098853,114.157324280904
"BANK OF COMMUNICATIONS CO., LTD.","UNIT B B/F & G/F, UNIT C G/F, 1-3/F, 16/F ROOM 01 & 18/F, WHEELOCK HOUSE, 20 PEDDER STREET, CENTRAL, HONG KONG","NO.188 YINCHENG ZHONG ROAD, SHANGHAI, P R CHINA.",Licensed Bank,http://apps.hkma.gov.hk/eng/index.php?c=search&m=search_by_institution&ri=100023,22.2822584612118,114.157345738718
"BANK OF DONGGUAN CO., LTD.","SUITES 2504-2511, 25/F, TWO INTERNATIONAL FINANCE CENTRE, 8 FINANCE STREET, CENTRAL, HONG KONG","NO. 21 TIYU ROAD, GUANCHENG DISTRICT, DONGGUAN, GUANGDONG, CHINA.",Licensed Bank,,22.2854233173531,114.15925752409
"BANK OF EAST ASIA, LIMITED (THE)","BANK OF EAST ASIA BUILDING, 10 DES VOEUX ROAD CENTRAL, HONG KONG.",,Licensed Bank,http://apps.hkma.gov.hk/eng/index.php?c=search&m=search_by_institution&ri=100013,22.2810709559658,114.158380734593
"BANK OF FUKUOKA, LTD. (THE)","ROOM 404, 4TH FLOOR, FAR EAST FINANCE CENTRE, 16 HARCOURT ROAD, HONG KONG.","13-1,TENJIN 2-CHOME, CHUO-KU,FUKUOKA 810-0001, JAPAN.",Local Representative Office,,22.2799748518626,114.164062125223
BANK OF INDIA,"2/F., RUTTONJEE HOUSE, 11 DUDDELL STREET, CENTRAL, HONG KONG.","EXPRESS TOWERS NARIMAN POINT BOMBAY 400021, INDIA.",Licensed Bank,,22.2801786257031,114.156825725224
"BANK OF KYOTO, LTD. (THE)","UNIT 2001, 20/F, TOWER 1, ADMIRALTY CENTRE, 18 HARCOURT ROAD, HONG KONG","700 YAKUSHIMAE-CHO, KARASUMADORI-MATSUBARA-AGARU SHIMOGYO-KU KYOTO, JAPAN.",Local Representative Office,,22.2794898206045,114.164819440089
BANK OF MONTREAL,"SUITES 2806-2809, LEVEL 28, THREE PACIFIC PLACE, 1 QUEEN'S ROAD EAST, HONG KONG","129, RUE SAINT-JACQUES, MONTREAL, QUEBEC, H2Y 1L6, CANADA.",Licensed Bank,http://apps.hkma.gov.hk/eng/index.php?c=search&m=search_by_institution&ri=100097,22.2770220602961,114.168030267553
BANK OF NEW YORK MELLON (THE),"LEVEL 26, THREE PACIFIC PLACE, 1 QUEEN'S ROAD EAST, HONG KONG.","240 GREENWICH STREET, NEW YORK, NY 10286",Licensed Bank,http://apps.hkma.gov.hk/eng/index.php?c=search&m=search_by_institution&ri=100147,22.2776599976679,114.164548074967
BANK OF NOVA SCOTIA (THE),"SUITE 2101, CENTRAL TOWER, 28 QUEEN'S ROAD CENTRAL, HONG KONG.","44 KING STREET WEST, TORONTO, ONTARIO, CANADA.",Licensed Bank,http://apps.hkma.gov.hk/eng/index.php?c=search&m=search_by_institution&ri=100088,22.2812123621644,114.156821063959
BANK OF SHANGHAI (HONG KONG) LIMITED,"34/F, CHAMPION TOWER, 3 GARDEN ROAD, CENTRAL, HONG KONG.",,Restricted Licence Bank,,22.278446979709,114.160644996388
BANK OF SINGAPORE LIMITED,"34/F & 35/F, ONE INTERNATIONAL FINANCE CENTRE, 1 HARBOUR VIEW STREET, CENTRAL, HONG KONG.","63 CHULIA STREET, #10-00 OCBC CENTRE EAST, SINGAPORE (049514)",Licensed Bank,http://apps.hkma.gov.hk/eng/index.php?c=search&m=search_by_institution&ri=100290,22.2849386021992,114.158046454059
BANK OF TAIWAN,"17/F, STANDARD CHARTERED BANK BUILDING, 4-4A DES VOEUX ROAD CENTRAL, CENTRAL, HONG KONG","NO. 120, SECTION 1, CHONGCING SOUTH ROAD, JHONGJHENG DISTRICT, TAIPEI CITY 10007, TAIWAN.",Licensed Bank,,22.2803701111054,114.159081901702
"BANK OF YOKOHAMA, LTD. (THE)","SUITE 2109 , TOWER 6, THE GATEWAY, HARBOUR CITY, 9 CANTON ROAD, TSIM SHA TSUI, KOWLOON.","1-1, MINATOMIRAI 3-CHOME, NISHI-KU, YOKOHAMA, KANAGAWA, 220-8611, JAPAN.",Local Representative Office,,22.2970395163072,114.168193994587
BANK SINOPAC,"26/F, CENTRAL TOWER, 28 QUEEN'S ROAD CENTRAL, CENTRAL, HONG KONG.","NO.36, SECTION 3, NANKING EAST ROAD, CHUNG SHAN DISTRICT, TAIPEI 104, TAIWAN.",Licensed Bank,http://apps.hkma.gov.hk/eng/index.php?c=search&m=search_by_institution&ri=100260,22.2937438336182,114.158152146543
BANQUE CANTONALE DE GENEVE,"UNIT 808-809, 8/F, ALEXANDRA HOUSE, 18 CHATER ROAD, CENTRAL, HONG KONG.","BCGE, QUAI DE L'LLE 17, P.O. BOX 2251, CH-1211 GENEVA 2, SWITZERLAND.",Local Representative Office,,22.2815108431753,114.158574037015
BANQUE PICTET & CIE SA,"9/F, CHATER HOUSE, 8 CONNAUGHT ROAD CENTRAL, HONG KONG","ROUTE DES ACACIAS 60, 1211 GENEVA 73, SWITZERLAND",Licensed Bank,http://apps.hkma.gov.hk/eng/index.php?c=search&m=search_by_institution&ri=100339,22.2824235332795,114.158389267553
BANQUE TRANSATLANTIQUE S.A.,"SUITES 4306-4311, 43RD FLOOR, JARDINE HOUSE, 1 CONNAUGHT PLACE, CENTRAL, HONG KONG","26 AVENUE F.D. ROOSEVELT, 75008 PARIS, FRANCE",Local Representative Office,,22.282960710963,114.159255892303
BARCLAYS BANK PLC,"41/F, CHEUNG KONG CENTER, 2 QUEEN'S ROAD CENTRAL, HONG KONG.","1 CHURCHILL PLACE, LONDON, E14 5HP, UNITED KINGDOM.",Licensed Bank,http://apps.hkma.gov.hk/eng/index.php?c=search&m=search_by_institution&ri=100084,22.2798144091155,114.160584754059
BCOM FINANCE (HONG KONG) LIMITED,"1/F WHEELOCK HOUSE, 20 PEDDER STREET, CENTRAL, HONG KONG.",,Deposit-taking Company,http://apps.hkma.gov.hk/eng/index.php?c=search&m=search_by_institution&ri=300275,22.2820140520059,114.157362096388
"BDO UNIBANK, INC.","SUITE 1001, 10TH FLOOR, CENTRAL TOWER, 28 QUEEN'S ROAD CENTRAL, HONG KONG","BDO CORPORATE CENTER, 7899 MAKATI AVENUE, MAKATI CITY, PHILIPPINES.",Licensed Bank,http://apps.hkma.gov.hk/eng/index.php?c=search&m=search_by_institution&ri=100054,22.2813532903248,114.156826361729
BENDURA BANK AG,"UNIT 1905, LEVEL 19, INTERNATIONAL COMMERCE CENTRE, 1 AUSTIN ROAD WEST, KOWLOON","SCHAANER STRASSE 27, 9487 GAMPRIN-BENDERN, PRINCIPALITY OF LIECHTENSTEIN",Local Representative Office,,22.3034257556302,114.160179395392
BNP PARIBAS,"60/F AND 63/F, TWO INTERNATIONAL FINANCE CENTRE, 8 FINANCE STREET, CENTRAL, HONG KONG.","16, BOULEVARD DES ITALIENS, 75009 PARIS, FRANCE.",Licensed Bank,http://apps.hkma.gov.hk/eng/index.php?c=search&m=search_by_institution&ri=100079,22.2856881962824,114.159311480481
BPI INTERNATIONAL FINANCE LIMITED,"5/F, LHT TOWER, 31 QUEEN'S ROAD CENTRAL, HONG KONG",,Deposit-taking Company,http://apps.hkma.gov.hk/eng/index.php?c=search&m=search_by_institution&ri=300006,22.2821234350935,114.156525438718
CA INDOSUEZ (SWITZERLAND) SA,"SUITE 2918, 29/F, TWO PACIFIC PLACE, 88 QUEENSWAY, HONG KONG.","4, QUAI G-N-RAL-GUISAN, 1204 GENEVA, SWITZERLAND.",Licensed Bank,http://apps.hkma.gov.hk/eng/index.php?c=search&m=search_by_institution&ri=100303,22.2774091502031,114.16440756599
CAIXABANK S.A.,"UNIT 12A, 12TH FLOOR, NO. 33 DES VOEUX ROAD CENTRAL, CENTRAL, HONG KONG","PINTOR SOROLLA, 2-4 IN VALENCIA, SPAIN",Local Representative Office,,22.2830369797056,114.157164967553
CANADIAN IMPERIAL BANK OF COMMERCE,"SUITE 3602, 36/F., CHEUNG KONG CENTER, 2 QUEEN'S ROAD CENTRAL, HONG KONG.","81 BAY STREET, CIBC SQUARE, TORONTO, ONTARIO, M5J 0E7 CANADA",Licensed Bank,http://apps.hkma.gov.hk/eng/index.php?c=search&m=search_by_institution&ri=100099,22.2798500269763,114.160564135874
CATHAY BANK,"3008, 30/F, TOWER 2, THE GATEWAY, 25 CANTON ROAD, TSIM SHA TSUI, KOWLOON","777 NORTH BROADWAY, LOS ANGELES, CA 90012, U.S.A.",Licensed Bank,,22.3002932675569,114.168059360964
"CATHAY UNITED BANK COMPANY, LIMITED","10/F, LEE GARDEN THREE, 1 SUNNING ROAD, CAUSEWAY BAY, HONG KONG","1/F, NO. 7, SONGREN ROAD, TAIPEI CITY 110, TAIWAN.",Licensed Bank,http://apps.hkma.gov.hk/eng/index.php?c=search&m=search_by_institution&ri=100252,22.2783829146554,114.185220017553
"CHANG HWA COMMERCIAL BANK, LTD.","1401, TOWER II, THE GATEWAY, 25 CANTON ROAD, KOWLOON.","NO. 38, SECTION 2, ZIYOU ROAD, CENTRAL DIST., TAICHUNG CITY, TAIWAN",Licensed Bank,http://apps.hkma.gov.hk/eng/index.php?c=search&m=search_by_institution&ri=100223,22.2996901278606,114.167745067837
CHAU'S BROTHERS FINANCE COMPANY LIMITED,"6TH FLOOR, CHAU'S COMMERCIAL CENTRE, 284 SHA TSUI ROAD, TSUEN WAN, N.T.",,Deposit-taking Company,,22.3696493296432,114.116494067555
"CHIBA BANK, LTD. (THE)","UNIT 2510, ONE PACIFIC PLACE, 88 QUEENSWAY, CENTRAL, HONG KONG.","1-2, CHIBA-MINATO, CHUO-KU CHIBA, JAPAN.",Licensed Bank,,22.2908404998831,114.164237918943
"CHINA BOHAI BANK CO., LTD.","SUITE 1201-1209 & 1215-1216, 12/F, TWO INTERNATIONAL FINANCE CENTRE, 8 FINANCE STREET, CENTRAL, HONG KONG","NO. 218, HAIHE EAST ROAD, HEDONG DISTRICT, TIANJIN, CHINA",Licensed Bank,,22.2853705678477,114.159299853492
CHINA CITIC BANK CORPORATION LIMITED,"80/F, INTERNATIONAL COMMERCE CENTRE, 1 AUSTIN ROAD WEST, KOWLOON","6-30/F AND 32-42/F, BUILDING NO. 1, 10 GUANGHUA ROAD, CHAOYANG DISTRICT, BEIJING, CHINA",Licensed Bank,,22.303660522019,114.160129215707
CHINA CITIC BANK INTERNATIONAL LIMITED,"61-65, DES VOEUX ROAD CENTRAL, HONG KONG",,Licensed Bank,http://apps.hkma.gov.hk/eng/index.php?c=search&m=search_by_institution&ri=100040,22.2838906139429,114.156726094542
CHINA CONSTRUCTION BANK (ASIA) CORPORATION LIMITED,"28/F, CCB TOWER, NO. 3 CONNAUGHT ROAD CENTRAL, CENTRAL, HONG KONG.",,Licensed Bank,http://apps.hkma.gov.hk/eng/index.php?c=search&m=search_by_institution&ri=100015,22.2814979084633,114.161474327846
CHINA CONSTRUCTION BANK CORPORATION,"28/F, CCB TOWER, NO. 3 CONNAUGHT ROAD CENTRAL, CENTRAL, HONG KONG.","NO.25, FINANCIAL STREET, XICHENG DISTRICT, BEIJING, P.R. CHINA",Licensed Bank,http://apps.hkma.gov.hk/eng/index.php?c=search&m=search_by_institution&ri=100234,22.2816319176331,114.161452867553
CHINA DEVELOPMENT BANK,"33/F, ONE INTERNATIONAL FINANCE CENTRE, NO.1 HARBOUR VIEW STREET, CENTRAL, HONG KONG.","NO. 18, FUXINGMENNEI STREET, XICHENG DISTRICT, BEIJING, P.R. CHINA",Licensed Bank,,22.2853757265342,114.156848741616
"CHINA EVERBRIGHT BANK CO., LTD.","G/F (SHOP B), 11/F, 20/F, 22/F, 23/F & 36/F, EVERBRIGHT CENTRE, 108 GLOUCESTER ROAD, WANCHAI, HONG KONG.","CHINA EVERBRIGHT CENTER, NO. 25 TAIPINGQIAO AVENUE, XICHENG DISTRICT, BEIJING, P.R. CHINA",Licensed Bank,http://apps.hkma.gov.hk/eng/index.php?c=search&m=search_by_institution&ri=100314,22.2792805214743,114.173872138718
"CHINA GUANGFA BANK CO., LTD.","12 FLOOR, ONE EXCHANGE SQUARE, 8 CONNAUGHT PLACE, CENTRAL, HONG KONG","CGB BUILDING, NO. 713 DONGFENGDONG ROAD, YUEXIU DISTRICT, GUANGZHOU, GUANGDONG PROVINCE, P. R. CHINA",Licensed Bank,,22.2847241474469,114.157453367553
"CHINA MERCHANTS BANK CO., LTD.","27-28/F, 30-31/F, THREE EXCHANGE SQUARE, 8 CONNAUGHT PLACE, CENTRAL, HONG KONG.","CHINA MERCHANTS BANK TOWER, 7088 SHENNAN BOULEVARD, SHENZHEN, CHINA.",Licensed Bank,http://apps.hkma.gov.hk/eng/index.php?c=search&m=search_by_institution&ri=100255,22.2847845675241,114.157337238718
"CHINA MINSHENG BANKING CORP., LTD.","ROOMS 01-02, 12-16, 37/F & 40/F, TWO INTERNATIONAL FINANCE CENTRE, 8 FINANCE STREET, CENTRAL, HONG KONG","NO. 2, FUXINGMENNEI AVENUE, XICHENG DISTRICT, BEIJING, CHINA 100031.",Licensed Bank,http://apps.hkma.gov.hk/eng/index.php?c=search&m=search_by_institution&ri=100311,22.2854007466296,114.159313240565
"CHINA ZHESHANG BANK CO., LTD.","15TH FLOOR, THREE EXCHANGE SQUARE, NO. 8 CONNAUGHT PLACE, CENTRAL, HONG KONG","NO. 1 MINXIN ROAD, SHANGCHENG DISTRICT, HANGZHOU, ZHEJIANG, PEOPLE'S REPUBLIC OF CHINA",Licensed Bank,http://apps.hkma.gov.hk/eng/index.php?c=search&m=search_by_institution&ri=100324,22.2848373123961,114.157381425224
CHIYU BANKING CORPORATION LIMITED,"74-78 DES VOEUX ROAD CENTRAL, HONG KONG.",,Licensed Bank,http://apps.hkma.gov.hk/eng/index.php?c=search&m=search_by_institution&ri=100064,22.2840727033681,114.156141711729
CHONG HING BANK LIMITED,"GROUND FLOOR, CHONG HING BANK CENTRE, 24 DES VOEUX ROAD CENTRAL, HONG KONG.",,Licensed Bank,http://apps.hkma.gov.hk/eng/index.php?c=search&m=search_by_institution&ri=100039,22.2827170945467,114.157009759882
CHONG HING FINANCE LIMITED,"GROUND FLOOR, CHONG HING BANK CENTRE, 24 DES VOEUX ROAD CENTRAL, HONG KONG.",,Deposit-taking Company,,22.2825582520442,114.157031217553
"CHUGOKU BANK, LTD (THE)","ROOM 1402, 14TH FLOOR, YORK HOUSE, THE LANDMARK, 15 QUEEN'S ROAD CENTRAL, HONG KONG","1-15-20, MARUNOUCHI, KITA-KU, OKAYAMA, JAPAN.",Licensed Bank,,22.2805449797073,114.157913725223
CIMB BANK BERHAD,"ROOMS 2501 AND 2507-2510, 25/F, GLOUCESTER TOWER, THE LANDMARK, 15 QUEEN'S ROAD CENTRAL, HONG KONG","LEVEL 17, MENARA CIMB, JALAN STESEN SENTRAL 2, KUALA LUMPUR SENTRAL, 50470 KUALA LUMPUR, MALAYSIA",Licensed Bank,http://apps.hkma.gov.hk/eng/index.php?c=search&m=search_by_institution&ri=100315,22.2806938967029,114.157902996388
CITIBANK (HONG KONG) LIMITED,"CITI TOWER, ONE BAY EAST, NO. 83 HOI BUN ROAD, KWUN TONG, KOWLOON",,Licensed Bank,http://apps.hkma.gov.hk/eng/index.php?c=search&m=search_by_institution&ri=100270,22.315611255626,114.214619835025
"CITIBANK, N.A.","50TH FLOOR, CHAMPION TOWER, 3 GARDEN ROAD, CENTRAL, HONG KONG.","388 GREENWICH STREET, NEW YORK, NY 10013, USA",Licensed Bank,http://apps.hkma.gov.hk/eng/index.php?c=search&m=search_by_institution&ri=100008,22.2785070399635,114.16064727803
CITICORP INTERNATIONAL LIMITED,"50TH FLOOR, CHAMPION TOWER, 3 GARDEN ROAD, CENTRAL, HONG KONG.",,Restricted Licence Bank,http://apps.hkma.gov.hk/eng/index.php?c=search&m=search_by_institution&ri=200036,22.278665394525,114.160419690848
CLEARSTREAM BANKING S.A.,"2904-7, 29/F, MAN YEE BUILDING, 68 DES VOEUX ROAD CENTRAL, HONG KONG.","42 AVENUE JF KENNEDY, L-1855 LUXEMBOURG.",Local Representative Office,,22.2834621006471,114.155894559963
CMB WING LUNG BANK LIMITED,"43-49 DES VOEUX ROAD CENTRAL, HONG KONG.",,Licensed Bank,http://apps.hkma.gov.hk/eng/index.php?c=search&m=search_by_institution&ri=100042,22.2835305593142,114.157027938718
COMMONWEALTH BANK OF AUSTRALIA,"SUITE 1401, ONE EXCHANGE SQUARE, 8 CONNAUGHT PLACE, CENTRAL, HONG KONG.","COMMONWEALTH BANK PLACE SOUTH, LEVEL 1, 11 HARBOUR STREET, SYDNEY NSW 2000, AUSTRALIA",Licensed Bank,http://apps.hkma.gov.hk/eng/index.php?c=search&m=search_by_institution&ri=100165,22.2838934587728,114.158387182894
COÖPERATIEVE RABOBANK U.A.,"13/F, ONE PACIFIC PLACE, 88 QUEENSWAY, HONG KONG","CROESELAAN 18, 3521 CB UTRECHT, THE NETHERLANDS.",Licensed Bank,http://apps.hkma.gov.hk/eng/index.php?c=search&m=search_by_institution&ri=100197,22.2801668233485,114.155035606679
CORPORATE FINANCE (D.T.C.) LIMITED,"UNIT 404A, 4/F, FORTRESS TOWER, 250 KING'S ROAD, NORTH POINT, HONG KONG",,Deposit-taking Company,,22.2885943952612,114.194370764893
CREDIT AGRICOLE CORPORATE AND INVESTMENT BANK,"SUITES 2506-2515, 26-27/F & 30/F, TWO PACIFIC PLACE, 88 QUEENSWAY, HONG KONG.","12, PLACE DES ETATS UNIS - CS 70052-92547 MONTROUGE CEDEX, FRANCE",Licensed Bank,http://apps.hkma.gov.hk/eng/index.php?c=search&m=search_by_institution&ri=100086,22.2773887684753,114.164464254059
CREDIT INDUSTRIEL ET COMMERCIAL,"SUITES 4306-4311, 43RD FLOOR, JARDINE HOUSE, 1 CONNAUGHT PLACE, CENTRAL, HONG KONG","6 AVENUE DE PROVENCE, 75009 PARIS, FRANCE.",Licensed Bank,http://apps.hkma.gov.hk/eng/index.php?c=search&m=search_by_institution&ri=100322,22.2831185941189,114.159273525224
"CTBC BANK CO., LTD.","ROOM 2106-10, 21/F AND ROOM 2801, 28/F, TWO INTERNATIONAL FINANCE CENTRE, 8 FINANCE STREET, CENTRAL, HONG KONG.","NO. 166, NO. 168, NO. 170, JINGMAO 2ND ROAD, NANGANG DISTRICT, TAIPEI, TAIWAN.",Licensed Bank,http://apps.hkma.gov.hk/eng/index.php?c=search&m=search_by_institution&ri=100242,22.2854403449335,114.159250394541
"DAH SING BANK, LIMITED","26/F, DAH SING FINANCIAL CENTRE, 248 QUEEN'S ROAD EAST, WAN CHAI, HONG KONG",,Licensed Bank,http://apps.hkma.gov.hk/eng/index.php?c=search&m=search_by_institution&ri=100006,22.2747739587797,114.173525466238
DBS BANK (HONG KONG) LIMITED,"11TH FLOOR, THE CENTER, 99 QUEEN'S ROAD CENTRAL, HONG KONG.",,Licensed Bank,http://apps.hkma.gov.hk/eng/index.php?c=search&m=search_by_institution&ri=100034,22.2847400596276,114.154678721063
DBS BANK LTD.,"G/F & 18/F, THE CENTER, 99 QUEEN'S ROAD CENTRAL, HONG KONG.","12 MARINA BOULEVARD, MARINA BAY FINANCIAL CENTRE TOWER 3, SINGAPORE 018982.",Licensed Bank,http://apps.hkma.gov.hk/eng/index.php?c=search&m=search_by_institution&ri=100199,22.2853615742596,114.154486947818
DEUTSCHE BANK AKTIENGESELLSCHAFT,"60/F, INTERNATIONAL COMMERCE CENTRE, 1 AUSTIN ROAD WEST, KOWLOON.","TAUNUSANLAGE 12, 60325 FRANKFURT, FEDERAL REPUBLIC OF GERMANY.",Licensed Bank,http://apps.hkma.gov.hk/eng/index.php?c=search&m=search_by_institution&ri=100085,22.303660522019,114.160129215707
DUKASCOPY BANK SA,"ROOM 701, 7/F, TOWER 2, SILVERCORD, 30 CANTON ROAD, TSIM SHA TSUI, KOWLOON.","ROUTEDE PRE-BOIS 20, CH-1215 GENEVA 15, SWITZERLAND.",Local Representative Office,,22.2973329796954,114.169387996389
"DZ BANK AG DEUTSCHE ZENTRAL-GENOSSENSCHAFTSBANK, FRANKFURT AM MAIN","9/F., ADMIRALTY CENTRE, TOWER II, 18 HARCOURT ROAD, HONG KONG.","AM PLATZ DER REPUBLIK, 60325 FRANKFURT AM MAIN, GERMANY.",Licensed Bank,,22.2793916310201,114.165561111091
"E.SUN COMMERCIAL BANK, LTD.","SUITES 2701, 2710-14, 27/F AND 28/F, TOWER 6, THE GATEWAY, 9 CANTON ROAD, TSIMSHATSUI, KOWLOON.","NO. 117, SEC.3, MINSHENG E. ROAD, SONGSHAN DISTRICT, TAIPEI CITY 105-46, TAIWAN",Licensed Bank,http://apps.hkma.gov.hk/eng/index.php?c=search&m=search_by_institution&ri=100264,22.2970074658543,114.168125067553
EAST WEST BANK,"SUITE 1108, 11/F, TWO INTERNATIONAL FINANCE CENTRE, 8 FINANCE STREET, CENTRAL, HONG KONG.","135N. LOS ROBLES AVE., 7TH FLOOR, PASADENA, CA 91101 UNITED STATES.",Licensed Bank,http://apps.hkma.gov.hk/eng/index.php?c=search&m=search_by_institution&ri=100278,22.2854993838452,114.159397623377
EFG BANK AG,"LEVEL 18, INTERNATIONAL COMMERCE CENTRE, 1 AUSTIN ROAD WEST, KOWLOON.","BLEICHERWEG 8, 8001 ZURICH, SWITZERLAND.",Licensed Bank,http://apps.hkma.gov.hk/eng/index.php?c=search&m=search_by_institution&ri=100254,22.3052462311699,114.161408965707
ERSTE GROUP BANK AG,"UNITS 08 TO 13, 3RD FLOOR, FAR EAST FINANCE CENTRE, 16 HARCOURT ROAD, ADMIRALTY, HONG KONG","AM BELVEDERE 1, 1100 WIEN, AUSTRIA",Licensed Bank,,22.2802032478128,114.164022381047
EUROCLEAR BANK,"20/F, CENTRAL PLAZA, 18 HARBOUR ROAD, WANCHAI, HONG KONG.","1, BOULEVARD DU ROI ALBERT II, B-1210 BRUSSELS, BELGIUM.",Restricted Licence Bank,,22.279914707558,114.173685725223
EXPORT-IMPORT BANK OF CHINA (THE),"ROOM 5707, 57/F, TWO INTERNATIONAL FINANCE CENTRE, 8 FINANCE STREET, CENTRAL, HONG KONG","NO. 30 FUXINGMENNEI STREET, XICHENG DISTRICT, BEIJING, 10031, CHINA",Local Representative Office,,22.2851952071791,114.159173091278
FAR EASTERN INTERNATIONAL BANK,"20TH FLOOR, 8 QUEEN'S ROAD CENTRAL, CENTRAL, HONG KONG.","26-27 FLOOR, TUN HWA S. ROAD, SECTION 2, TAIPEI, TAIWAN.",Licensed Bank,,22.2803851031707,114.157611182894
FIRST ABU DHABI BANK PJSC,"SUITES 705-8, ICBC TOWER, 3 GARDEN ROAD, CENTRAL, HONG KONG","FAB BUILDING, KHALIFA BUSINESS PARK, AL QURM, ABU DHABI, UNITED ARAB EMIRATES, P.O. BOX 6316",Licensed Bank,,23.6469467833383,114.314164850913
"FIRST COMMERCIAL BANK, LTD.","1702-8, 17TH FLOOR, PRUDENTIAL TOWER, THE GATEWAY, HARBOUR CITY, 21 CANTON ROAD, TSIMSHATSUI, KOWLOON","30 CHUNGKING S. ROAD, SECTION 1, TAIPEI 100, TAIWAN.",Licensed Bank,http://apps.hkma.gov.hk/eng/index.php?c=search&m=search_by_institution&ri=100220,22.2989374363224,114.167785725224
FUBON BANK (HONG KONG) LIMITED,"FUBON BANK BUILDING, 38 DES VOEUX ROAD CENTRAL, HONG KONG.",,Licensed Bank,http://apps.hkma.gov.hk/eng/index.php?c=search&m=search_by_institution&ri=100138,22.2832630387212,114.156714267553
FUBON CREDIT (HONG KONG) LIMITED,"UNIT 08, 7/F, TOWER 2, CHEUNG SHA WAN PLAZA, 833 CHEUNG SHA WAN ROAD, CHEUNG SHA WAN, KOWLOON",,Deposit-taking Company,,22.3370290034573,114.14830139639
FUSION BANK LIMITED,"2/F, INNOCENTRE, 72 TAT CHEE AVENUE, KOWLOON TONG, KOWLOON",,Licensed Bank,http://apps.hkma.gov.hk/eng/index.php?c=search&m=search_by_institution&ri=100330,22.3354384578739,114.176125881048
GOLDMAN SACHS ASIA BANK LIMITED,"68/F, CHEUNG KONG CENTER, 2 QUEEN'S ROAD CENTRAL, HONG KONG",,Restricted Licence Bank,http://apps.hkma.gov.hk/eng/index.php?c=search&m=search_by_institution&ri=200109,22.2796357075779,114.160563296388
HABIB BANK A.G. ZURICH,"ROOM 1701-1705, WING ON HOUSE, 71 DES VOEUX ROAD, CENTRAL, HONG KONG.","WEINBERGSTRASSE 59, P.O. BOX. 4931, 8022 ZURICH, SWITZERLAND.",Local Representative Office,,22.2839038072719,114.156434538718
HABIB BANK ZURICH (HONG KONG) LIMITED,"1701-1705, WING ON HOUSE, 71 DES VOEUX ROAD, CENTRAL, HONG KONG.",,Restricted Licence Bank,,22.2839624002263,114.156467267553
"HANG SENG BANK, LIMITED","HANG SENG BANK BLDG., 83 DES VOEUX ROAD CENTRAL, HONG KONG.",,Licensed Bank,http://apps.hkma.gov.hk/eng/index.php?c=search&m=search_by_institution&ri=100057,22.2846632773462,114.156112544541
HDFC BANK LIMITED,"SUITE 1707, 17/F, TOWER 1, THE GATEWAY, HARBOUR CITY, 25 CANTON ROAD, TSIM SHA TSUI, KOWLOON.","HDFC BANK HOUSE, SENAPATI BAPAT MARG, LOWER PAREL, MUMBAI 400 013, INDIA",Licensed Bank,,22.2997094087117,114.167950654059
HONG LEONG BANK BERHAD,"50TH FLOOR, THE CENTER, 99 QUEEN'S ROAD CENTRAL, HONG KONG.","LEVEL 30, MENARA HONG LEONG, NO. 6, JALAN DAMANLELA, BUKIT DAMANSARA, 50490 KUALA LUMPUR, MALAYSIA",Licensed Bank,http://apps.hkma.gov.hk/eng/index.php?c=search&m=search_by_institution&ri=100268,22.2847469749383,114.154707054059
HONGKONG AND SHANGHAI BANKING CORPORATION LIMITED (THE),"1 QUEEN'S ROAD CENTRAL, HONG KONG.",,Licensed Bank,http://apps.hkma.gov.hk/eng/index.php?c=search&m=search_by_institution&ri=100002,22.2802750958451,114.159397143196
HSBC BANK PLC,"LEVEL 18, HSBC MAIN BUILDING, NO. 1 QUEEN'S ROAD CENTRAL, HONG KONG.","8 CANADA SQUARE, LONDON, E14 5HQ, UNITED KINGDOM.",Licensed Bank,http://apps.hkma.gov.hk/eng/index.php?c=search&m=search_by_institution&ri=100249,22.2803720857401,114.159372915706
"HSBC BANK USA, NATIONAL ASSOCIATION","1 QUEEN'S ROAD CENTRAL, HONG KONG.","1800 TYSONS BOULEVARD, SUITE 50, MCLEAN, VIRGINIA 220102, U.S.A.",Licensed Bank,,22.2800959365862,114.159722296388
"HUA NAN COMMERCIAL BANK, LTD.","SUITE 5601-03, 56/F., CENTRAL PLAZA, 18 HARBOUR ROAD, WANCHAI, HONG KONG.","NO. 123, SONGREN ROAD, XINYI DIST., TAIPEI, TAIWAN.",Licensed Bank,http://apps.hkma.gov.hk/eng/index.php?c=search&m=search_by_institution&ri=100213,22.2801578757399,114.173738925224
"HUA XIA BANK CO., LIMITED","18/F, TWO INTERNATIONAL FINANCE CENTRE, 8 FINANCE STREET, CENTRAL, HONG KONG","HUA XIA BANK MANSION, 22 JIANGUOMENNEI STREET, DONGCHENG DISTRICT, BEIJING, P.R. CHINA",Licensed Bank,http://apps.hkma.gov.hk/eng/index.php?c=search&m=search_by_institution&ri=100334,22.2854814268229,114.159310525937
ICICI BANK LIMITED,"UNIT 1504B-1505, LEVEL 15, INTERNATIONAL COMMERCE CENTRE, 1 AUSTIN ROAD WEST, KOWLOON.","ICICI BANK TOWERS, BANDRA-KURLA COMPLEX, MUMBAI 400 051, INDIA",Licensed Bank,http://apps.hkma.gov.hk/eng/index.php?c=search&m=search_by_institution&ri=100271,22.3037377600267,114.160264225224
INDIAN OVERSEAS BANK,"3/F., RUTTONJEE HOUSE, 11 DUDDELL STREET, CENTRAL, HONG KONG.","762,ANNA SALAI MADRAS-6000002, INDIA.",Licensed Bank,,22.2798650282791,114.156836914118
INDUSTRIAL AND COMMERCIAL BANK OF CHINA (ASIA) LIMITED,"33/F, ICBC TOWER, 3 GARDEN ROAD, CENTRAL, HONG KONG.",,Licensed Bank,http://apps.hkma.gov.hk/eng/index.php?c=search&m=search_by_institution&ri=100077,22.2787211578471,114.160811763859
INDUSTRIAL AND COMMERCIAL BANK OF CHINA LIMITED,"33/F., ICBC TOWER, 3 GARDEN ROAD, CENTRAL, HONG KONG.","55 FUXINGMENNEI DAJIE, XICHENG DISTRICT, BEIJING, 100031, CHINA.",Licensed Bank,,22.2787410137146,114.160758119683
"INDUSTRIAL BANK CO., LTD.","10-12/F, ONE INTERNATIONAL FINANCE CENTRE, 1 HARBOUR VIEW STREET, CENTRAL, HONG KONG","INDUSTRIAL BANK BUILDING, 398 JIANGHIN ZHONG AVENUE, TAIJIANG DISTRICT, FUZHOU, FUJIAN, PR CHINA",Licensed Bank,http://apps.hkma.gov.hk/eng/index.php?c=search&m=search_by_institution&ri=100317,22.2850432490606,114.156888059739
INDUSTRIAL BANK OF KOREA,"SUITE 3113, 31ST FLOOR, TWO PACIFIC PLACE, 88 QUEENSWAY, HONG KONG.","50,ULCHIRO 2-GA, CHUNG-GU, SEOUL 100-758, KOREA.",Licensed Bank,,22.2776948384302,114.166336033891
ING BANK N.V.,"8TH FLOOR, THREE PACIFIC PLACE, 1 QUEEN'S ROAD EAST, HONG KONG","BIJLMERDREEF 106, 1102 CT AMSTERDAM, THE NETHERLANDS",Licensed Bank,http://apps.hkma.gov.hk/eng/index.php?c=search&m=search_by_institution&ri=100155,22.2771253724475,114.168052211729
INTESA SANPAOLO SPA,"UNITS 8102-05 & 8106A, LEVEL 81, INTERNATIONAL COMMERCE CENTRE, 1 AUSTIN ROAD WEST, KOWLOON.","VIA MONTE DI PIETA, 8-20121 MILANO, ITALY.",Licensed Bank,http://apps.hkma.gov.hk/eng/index.php?c=search&m=search_by_institution&ri=100243,22.3036345769517,114.160252182895
"IYO BANK, LTD. (THE)","SUITE 2812, TOWER TWO, TIMES SQUARE, 1 MATHESON STREET, CAUSEWAY BAY, HONG KONG","1, MINAMI-HORIBATA-CHO, MATSUYAMA CITY, EHIME PREF.",Local Representative Office,,22.2781544839034,114.182104940565
J.P. MORGAN SECURITIES (ASIA PACIFIC) LIMITED,"18/F & 23-29/F, CHATER HOUSE, 8 CONNAUGHT ROAD CENTRAL, HONG KONG",,Restricted Licence Bank,http://apps.hkma.gov.hk/eng/index.php?c=search&m=search_by_institution&ri=200033,22.2823209928377,114.15868757295
"JPMORGAN CHASE BANK, NATIONAL ASSOCIATION","18/F & 20-29/F, CHATER HOUSE, 8 CONNAUGHT ROAD CENTRAL, HONG KONG","383 MADISON AVENUE, NEW YORK, NY 10179, UNITED STATES.",Licensed Bank,http://apps.hkma.gov.hk/eng/index.php?c=search&m=search_by_institution&ri=100089,22.2822760079382,114.158460127846
KASIKORNBANK PUBLIC COMPANY LIMITED,"UNIT 3316, 33/F, CHINA MERCHANTS TOWER, SHUN TAK CENTRE, NO. 168-200 CONNAUGHT ROAD CENTRAL, HONG KONG.","400/22 PHAHON YOTHIN ROAD, SAM SEN NAI SUB-DISTRICT, THAI DISTRICT, BANGKOK 10400",Restricted Licence Bank,,22.2878129960597,114.15182919135
KBC BANK N.V.,"39/F., CENTRAL PLAZA, 18 HARBOUR ROAD, HONG KONG.","HAVENLAAN 2, (SINT-JANS-MOLENBEEK) 1080 BRUSSELS, BELGIUM",Licensed Bank,,22.2801367815112,114.173747374502
KDB ASIA LIMITED,"SUITE 2005-8, 20TH FLOOR, TWO INTERNATIONAL FINANCE CENTRE, 8 FINANCE STREET, CENTRAL, HONG KONG.",,Restricted Licence Bank,http://apps.hkma.gov.hk/eng/index.php?c=search&m=search_by_institution&ri=200065,22.2863670785172,114.157161145205
KEB HANA BANK,"UNIT 6201, LEVEL 62, INTERNATIONAL COMMERCE CENTRE, 1 AUSTIN ROAD WEST, KOWLOON","35, EULJI-RO, JUNG-GU, SEOUL, REPUBLIC OF KOREA",Licensed Bank,http://apps.hkma.gov.hk/eng/index.php?c=search&m=search_by_institution&ri=100080,22.3043492179322,114.160083739613
KEB HANA GLOBAL FINANCE LIMITED,"UNIT 6203A, LEVEL 62, INTERNATIONAL COMMERCE CENTRE, 1 AUSTIN ROAD WEST, KOWLOON",,Deposit-taking Company,http://apps.hkma.gov.hk/eng/index.php?c=search&m=search_by_institution&ri=300506,22.3034329582318,114.160179967554
KEXIM ASIA LIMITED,"UNIT 2904-05, 29/F, CENTRAL PLAZA, 18 HARBOUR ROAD, WANCHAI, HONG KONG.",,Deposit-taking Company,http://apps.hkma.gov.hk/eng/index.php?c=search&m=search_by_institution&ri=300504,22.2799347863856,114.173686324747
KOOKMIN BANK,"SUITE 1101 AND 1106, 11TH FLOOR, CENTRAL PLAZA, 18 HARBOUR ROAD, WANCHAI, HONG KONG","#26, GUKJEGEUMYUNG-RO 8-GIL, YEONGDEUNGPO-GU, SEOUL, REPUBLIC OF KOREA",Licensed Bank,http://apps.hkma.gov.hk/eng/index.php?c=search&m=search_by_institution&ri=100323,22.2799687924882,114.173636209883
KOREA DEVELOPMENT BANK (THE),"SUITE 2009-2010, TWO INTERNATIONAL FINANCE CENTRE, 8 FINANCE STREET, CENTRAL, HONG KONG","14 EUNHAENG-RO, YEONGDEUNGPO-GU, SEOUL 07242, REPUBLIC OF KOREA",Restricted Licence Bank,,22.2863551438716,114.15715039567
"LAND BANK OF TAIWAN CO., LTD.","UNIT 3101-06 & 12, TOWER 1, THE GATEWAY, NO. 25 CANTON ROAD, TSIM SHA TSUI, KOWLOON","46 GUANCIAN ROAD, JHONGJHEN DISTRICT, TAIPEI CITY, TAIWAN.",Licensed Bank,,22.2996875087428,114.167819640565
LGT BANK AG,"SUITE 4203, TWO EXCHANGE SQUARE, 8 CONNAUGHT PLACE, HONG KONG.","HERRENGASSE 12, FL-9490 VADUZ, LIECHTENSTEIN.",Licensed Bank,http://apps.hkma.gov.hk/eng/index.php?c=search&m=search_by_institution&ri=100305,22.2887163800306,114.158669992864
LIVI BANK LIMITED,"28TH FLOOR, OXFORD HOUSE, TAIKOO PLACE, 979 KING'S ROAD, QUARRY BAY, HONG KONG",,Licensed Bank,http://apps.hkma.gov.hk/eng/index.php?c=search&m=search_by_institution&ri=100327,22.2873070235713,114.213279549677
MALAYAN BANKING BERHAD,"29/F, LEE GARDEN THREE, 1 SUNNING ROAD, CAUSEWAY BAY, HONG KONG","MENARA MAYBANK,100 JALAN TUN PERAK, 50050 KUALA LUMPUR, MALAYSIA.",Licensed Bank,http://apps.hkma.gov.hk/eng/index.php?c=search&m=search_by_institution&ri=100050,22.2778232958406,114.185379811729
MANULIFE BANK OF CANADA,"21/F, MANULIFE TOWER, ONE BAY EAST, 83 HOI BUN ROAD, KWUN TONG, KOWLOON","500 KING STREET NORTH, BOX 1602, WATERLOO, ON N2J 4C6, CANADA",Local Representative Office,,22.3157858073974,114.214266778192
MASHREQ BANK - PUBLIC SHAREHOLDING COMPANY,"UNIT 05-09, 27/F, PROSPERITY MILLENNIA PLAZA, 663 KING'S ROAD, NORTH POINT, HONG KONG","POST BOX 1250, DUBAI, UNITED ARAB EMIRATES",Licensed Bank,,22.2918768658186,114.208199882894
"MEGA INTERNATIONAL COMMERCIAL BANK CO., LTD.","SUITE 2201, 22/F., PRUDENTIAL TOWER, THE GATEWAY, HARBOUR CITY, 21 CANTON ROAD, KOWLOON.","100, CHI LIN ROAD, TAIPEI (104), TAIWAN.",Licensed Bank,http://apps.hkma.gov.hk/eng/index.php?c=search&m=search_by_institution&ri=100261,22.298904362888,114.167866182894
MELLI BANK PLC,"ROOM 2202, 22/F, HARBOUR CENTRE, 25 HARBOUR ROAD, WANCHAI, HONG KONG","98A KENSINGTON HIGH STREET, LONDON, W8 4SG, UNITED KINGDOM",Licensed Bank,,22.2820044053843,114.175494808134
METROPOLITAN BANK AND TRUST COMPANY,"UNIT D, 15/F., UNITED CENTRE, 95 QUEENSWAY, HONG KONG.","SEN. GIL J. PUYAT AVE., MAKATI CITY, METRO MANILA, PHILIPPINES 1200.",Local Representative Office,,22.2783362374117,114.165237928441
MITSUBISHI UFJ TRUST AND BANKING CORPORATION,"SUITES 2105-7, TOWER 6, THE GATEWAY, HARBOUR CITY, 9 CANTON ROAD, TSIM SHA TSUI, KOWLOON.","1-4-5, MARUNOUCHI, CHIYODA-KU, TOKYO 100-8212, JAPAN.",Licensed Bank,,22.2979247309032,114.168224460353
"MIZUHO BANK, LTD.","12/F, K11 ATELIER, 18 SALISBURY ROAD, TSIM SHA TSUI, KOWLOON","OTEMACHI TOWER, 1-5-5, OTEMACHI, CHIYODA-KU, TOKYO, JAPAN.",Licensed Bank,,22.2951957293802,114.175522467553
MORGAN STANLEY BANK ASIA LIMITED,"LEVEL 31, INTERNATIONAL COMMERCE CENTRE, 1 AUSTIN ROAD WEST, KOWLOON.",,Licensed Bank,http://apps.hkma.gov.hk/eng/index.php?c=search&m=search_by_institution&ri=100335,22.3034809297509,114.160143000932
MOX BANK LIMITED,"39/F, OXFORD HOUSE, TAIKOO PLACE, 979 KING'S ROAD, QUARRY BAY, HONG KONG",,Licensed Bank,http://apps.hkma.gov.hk/eng/index.php?c=search&m=search_by_institution&ri=100326,22.2873423442842,114.213310282894
"MUFG BANK, LTD.","8/F, AIA CENTRAL, 1 CONNAUGHT ROAD CENTRAL, CENTRAL, HONG KONG.","1-4-5 MARUNOUCHI, CHIYODA-KU, TOKYO, JAPAN.",Licensed Bank,http://apps.hkma.gov.hk/eng/index.php?c=search&m=search_by_institution&ri=100133,22.2814584956731,114.161793415706
"NANYANG COMMERCIAL BANK, LIMITED","NANYANG COMMERCIAL BANK BUILDING, 151 DES VOEUX ROAD CENTRAL, HONG KONG.",,Licensed Bank,http://apps.hkma.gov.hk/eng/index.php?c=search&m=search_by_institution&ri=100060,22.2858589735161,114.154764782894
NATIONAL AUSTRALIA BANK LIMITED,"SUITES 506-509, LEVEL 5, THREE PACIFIC PLACE, 1 QUEEN'S ROAD EAST, HONG KONG","LEVEL 28, 395 BOURKE STREET, MELBOURNE, VICTORIA 3000, AUSTRALIA",Licensed Bank,,22.277170981043,114.168062454059
NATIONAL BANK OF CANADA,"ROOM 1903, YORK HOUSE, THE LANDMARK, 15 QUEEN'S ROAD, CENTRAL, HONG KONG.","600 DE LA GAUCHETIERE WEST, MONTREAL, QUEBEC, H3B 4L2, CANADA.",Local Representative Office,,22.2805449797073,114.157913725223
NATIONAL BANK OF PAKISTAN,"UNIT 1804-05, 18/F, FWD FINANCIAL CENTRE, 308-320 DES VOEUX ROAD CENTRAL, HONG KONG.","I.I. CHUNDRIGAR ROAD, HEAD OFFICE, KARACHI, PAKISTAN.",Licensed Bank,,22.2868511817323,114.150670196388
NATIXIS,"UNITS 7101-7102, 7103A, 7108 ON 71/F AND 72/F, INTERNATIONAL COMMERCE CENTRE, 1 AUSTIN ROAD WEST, KOWLOON.","7 PROMENADE GERMAINE SABLON - 75013 PARIS, FRANCE",Licensed Bank,http://apps.hkma.gov.hk/eng/index.php?c=search&m=search_by_institution&ri=100226,22.3036692172509,114.1602837194
"NISHI-NIPPON CITY BANK, LTD. (THE)","SUITE 3112, TOWER 6, THE GATEWAY, HARBOUR CITY, 9 CANTON ROAD, TSIM SHA TSUI, KOWLOON.","3-6 HAKATA-EKIMAE 1-CHOME HAKATA-KU, FUKUOKA-SHI, FUKUOKA-KEN,812-0011, JAPAN.",Local Representative Office,,22.2969146862708,114.168281638718
NONGHYUP BANK,"UNIT 9605, LEVEL 96, INTERNATIONAL COMMERCE CENTRE, 1 AUSTIN ROAD WEST, KOWLOON","120, TONGIL-RO, JUNG-GU, SEOUL, REPUBLIC OF KOREA",Licensed Bank,,22.3036116293441,114.160190696389
"O-BANK CO., LTD.","SUITES 3210-14, 32/F, TOWER 6, THE GATEWAY, HARBOUR CITY, TSIM SHA TSUI, KOWLOON.","99, SEC.2, TIDING BLVD, NEIHU DISTRICT, TAIPEI, TAIWAN.",Licensed Bank,,22.297053359196,114.168312325224
OCBC BANK (HONG KONG) LIMITED,"OCBC CENTRE, 161 QUEEN'S ROAD CENTRAL, HONG KONG.",,Licensed Bank,http://apps.hkma.gov.hk/eng/index.php?c=search&m=search_by_institution&ri=100048,22.2849815396669,114.153738396388
"OITA BANK, LTD. (THE)","UNIT NO. 1108, 11/F, THE METROPOLIS TOWER, 10 METROPOLIS DRIVE, HUNGHOM, KOWLOON","4-1, FUNAI-CHO 3 CHOME, OITA-SHI, OITA, JAPAN.",Local Representative Office,,22.3036415535266,114.183408667554
ORIX ASIA LIMITED,"25TH FLOOR, TWO EXCHANGE SQUARE, 8 CONNAUGHT PLACE, CENTRAL, HONG KONG.",,Restricted Licence Bank,,22.2837879934054,114.158344625224
OVERSEA-CHINESE BANKING CORPORATION LIMITED,"9/F., NINE QUEEN'S ROAD CENTRAL, HONG KONG.","63 CHULIA STREET, #10-00 OCBC CENTRE EAST, SINGAPORE 049514",Licensed Bank,http://apps.hkma.gov.hk/eng/index.php?c=search&m=search_by_institution&ri=100020,22.280373317487,114.158344505758
P.T. BANK CENTRAL ASIA,"UNIT 4707, 47/F, THE CENTER, 99 QUEEN'S ROAD CENTRAL, HONG KONG.","WILSMA BCA, JL JEND SUDIRMAN KAV 22-23, JAKARTA, INDONESIA.",Local Representative Office,,22.284798089722,114.154682397522
P.T. BANK RAKYAT INDONESIA (PERSERO),"ROOM 2211, 22/F, LIPPO CENTRE TOWER II, 89 QUEENSWAY, ADMIRALTY, HONG KONG.","JL,JEND. SUDIRMAN NO. 44-46, JAKARTA 10210, INDONESIA.",Local Representative Office,,22.2793043684349,114.163239875076
PAO BANK LIMITED,"ROOM 1903-1904, NEO, 123 HOI BUN ROAD, KWUN TONG, KOWLOON",,Licensed Bank,,22.3142092152353,114.216263038718
PHILIPPINE NATIONAL BANK,"UNIT 02, 9TH FLOOR, TUNG WAI COMMERCIAL BUILDING, 109-111 GLOUCESTER ROAD, WANCHAI, HONG KONG.","PNB FINANCIAL CENTER, PRES. DIOSDADO MACAPAGAL BLVD., PASAY CITY, PHILIPPINES.",Licensed Bank,,22.2799603056556,114.174439981435
"PING AN BANK CO., LTD.","38/F & 42/F, ONE EXCHANGE SQUARE, 8 CONNAUGHT PLACE, CENTRAL, HONG KONG","SOUTH TOWER, PING AN FINANCIAL CENTER, 5023 YITIAN ROAD, FUTIAN DISTRICT, SHENZHEN, CHINA",Licensed Bank,http://apps.hkma.gov.hk/eng/index.php?c=search&m=search_by_institution&ri=100333,22.2838177761264,114.158248065706
PT. BANK MANDIRI (PERSERO) TBK,"7/F., FAR EAST FINANCE CENTRE, 16 HARCOURT ROAD, HONG KONG.","PLAZA MANDIRI, JL. JEND. GATOT SUBROTO KAV. 36-38, JAKARTA 12190, INDONESIA.",Restricted Licence Bank,,22.2800940416484,114.164086754059
PT. BANK NEGARA INDONESIA (PERSERO) TBK.,"G/F., FAR EAST FINANCE CENTRE, 16 HARCOURT ROAD, CENTRAL, HONG KONG.","J1. JEND. SUDIRMAN KAV. 1, JAKARTA 10220, INDONESIA.",Licensed Bank,,22.2801933199832,114.164054567553
PUBLIC BANK (HONG KONG) LIMITED,"PUBLIC BANK CENTRE, 120 DES VOEUX ROAD CENTRAL, HONG KONG.",,Licensed Bank,http://apps.hkma.gov.hk/eng/index.php?c=search&m=search_by_institution&ri=100022,22.2852143293142,114.154861125224
PUBLIC FINANCE LIMITED,"ROOM 1105-1107, WING ON HOUSE, 71 DES VOEUX ROAD CENTRAL, CENTRAL DISTRICT, HONG KONG.",,Deposit-taking Company,,22.283918079705,114.156449865706
QATAR NATIONAL BANK (Q.P.S.C.),"SUITE 5801-04, 58/F, TWO INTERNATIONAL FINANCE CENTRE, 8 FINANCE STREET, CENTRAL, HONG KONG","P.O. BOX 1000, DOHA, QATAR",Licensed Bank,,22.2853772855041,114.159296111163
"RESONA BANK, LIMITED","SUITES 1214-1215, TWO PACIFIC PLACE, 88 QUEENSWAY, HONG KONG","2-1, BINGOMACHI 2-CHOME, CHUO-KU, OSAKA, JAPAN.",Local Representative Office,,22.2771902077533,114.164442796388
ROYAL BANK OF CANADA,"41ST AND 42ND FLOOR, ONE TAIKOO PLACE, TAI KOO PLACE, 979 KING'S ROAD, QUARRY BAY, HONG KONG","200 BAY STREET, TORONTO, ONTARIO, M5J 2J5, CANADA.",Licensed Bank,http://apps.hkma.gov.hk/eng/index.php?c=search&m=search_by_institution&ri=100267,22.2877189940092,114.212610021387
"SHANGHAI COMMERCIAL & SAVINGS BANK, LTD. (THE)","10/F, PENINSULA OFFICE TOWER, 18 MIDDLE ROAD, TSIMSHATSUI, KOWLOON.","2, SEC. 1, MIN CHUAN E. ROAD, TAIPEI, TAIWAN.",Licensed Bank,http://apps.hkma.gov.hk/eng/index.php?c=search&m=search_by_institution&ri=100288,22.2956113680373,114.171757538718
SHANGHAI COMMERCIAL BANK LIMITED,"SHANGHAI COMMERCIAL BANK TOWER, 12 QUEEN'S ROAD CENTRAL, HONG KONG.",,Licensed Bank,http://apps.hkma.gov.hk/eng/index.php?c=search&m=search_by_institution&ri=100074,22.2806328748965,114.157535096388
"SHANGHAI PUDONG DEVELOPMENT BANK CO., LTD.","30/F, SPD BANK TOWER, ONE HENNESSY, 1 HENNESSY ROAD, HONG KONG","12 ZHONGSHAN EAST NO. 1 ROAD, SHANGHAI, CHINA.",Licensed Bank,http://apps.hkma.gov.hk/eng/index.php?c=search&m=search_by_institution&ri=100306,22.2782365951949,114.168863596388
"SHIGA BANK, LTD. (THE)","UNIT 1001, 10/F, HENLEY BUILDING, 5 QUEEN'S ROAD CENTRAL, HONG KONG","1-38 HAMAMACHI OTSU, SHIGA 520, JAPAN.",Licensed Bank,,22.2804633025929,114.159010771247
SHINHAN BANK,"UNIT 7703 ON LEVEL 77, INTERNATIONAL COMMERCE CENTRE, 1 AUSTIN ROAD WEST, KOWLOON.","120, 2GA, TAEPYUNG-RO, JUNG-GU, SEOUL 100-102, KOREA.",Licensed Bank,http://apps.hkma.gov.hk/eng/index.php?c=search&m=search_by_institution&ri=100293,22.3048411484696,114.16036214077
SHINKIN CENTRAL BANK,"SUITE 4008, 40/F, CENTRAL PLAZA, 18 HARBOUR ROAD, WANCHAI, HONG KONG.","3-7, YAESU 1 CHOME, CHUO-KU, TOKYO 103-0028, JAPAN.",Local Representative Office,,22.2799096797078,114.173738925224
"SHIZUOKA BANK, LTD. (THE)","SUITE 1001-1003, 10/F, TOWER 6, THE GATEWAY, HARBOUR CITY, 9 CANTON ROAD, TSIM SHA TSUI, KOWLOON","10,GOFUKUCHO 1 CHOME, SHIZUOKA-SHI,SHIZUOKA 420, JAPAN.",Licensed Bank,,22.2970834390899,114.168238723377
"SHOKO CHUKIN BANK, LTD. (THE)","SUITE 804, 8/F, CENTRAL PLAZA, 18 HARBOUR ROAD, WANCHAI, HONG KONG.","10-17, YAESU 2-CHOME, CHUO-KU,TOKYO, JAPAN.",Local Representative Office,,22.2799729518624,114.173607896388
SIAM COMMERCIAL BANK PUBLIC COMPANY LIMITED (THE),"SUITE 3209, 32/F, JARDINE HOUSE, 1 CONNAUGHT PLACE, CENTRAL, HONG KONG.","9 RUTCHADAPISEK ROAD, LADYAO, JATUJAK, BANGKOK 10900, THAILAND.",Restricted Licence Bank,,22.2831483769825,114.159284254059
SKANDINAVISKA ENSKILDA BANKEN AB,"SUITES 1701-1709, 17/F, JARDINE HOUSE, 1 CONNAUGHT PLACE, CENTRAL, HONG KONG.","KUNGSTRADGARDSGATAN 8, 106 40 STOCKHOLM, SWEDEN.",Licensed Bank,http://apps.hkma.gov.hk/eng/index.php?c=search&m=search_by_institution&ri=100308,22.2832766768184,114.159199725224
SOCIETE GENERALE,"LEVEL 38, THREE PACIFIC PLACE, 1 QUEEN'S ROAD EAST, HONG KONG.","29, BOULEVARD HAUSSMANN, 75009 PARIS, FRANCE.",Licensed Bank,http://apps.hkma.gov.hk/eng/index.php?c=search&m=search_by_institution&ri=100102,22.2772474125798,114.168074682894
STANDARD CHARTERED BANK,"4-4A DES VOEUX ROAD CENTRAL, HONG KONG.","1 BASINGHALL AVENUE, LONDON EC2V 5DD, UNITED KINGDOM.",Licensed Bank,,22.2804678253647,114.159081509931
STANDARD CHARTERED BANK (HONG KONG) LIMITED,"32ND FLOOR, 4-4A DES VOEUX ROAD, CENTRAL, HONG KONG.",,Licensed Bank,http://apps.hkma.gov.hk/eng/index.php?c=search&m=search_by_institution&ri=100269,22.280526024699,114.159058525224
STATE BANK OF INDIA,"15TH FLOOR, CENTRAL TOWER, 28 QUEEN'S ROAD CENTRAL, HONG KONG.","NARIMAN POINT, BOMBAY 400 021, INDIA.",Licensed Bank,,22.282032300627,114.15684154043
STATE STREET BANK AND TRUST COMPANY,"68TH FLOOR, TWO INTERNATIONAL FINANCE CENTRE, CENTRAL, HONG KONG.","ONE CONGRESS STREET, SUITE 1, BOSTON, MA 02114-2016, UNITED STATES",Licensed Bank,http://apps.hkma.gov.hk/eng/index.php?c=search&m=search_by_institution&ri=100219,22.2855523562978,114.159262925224
SUMITOMO MITSUI BANKING CORPORATION,"8/F, ONE INTERNATIONAL FINANCE CENTRE, 1 HARBOUR VIEW STREET, CENTRAL, HONG KONG.","1-2, MARUNOUCHI 1-CHOME, CHIYODA-KU, TOKYO, JAPAN.",Licensed Bank,http://apps.hkma.gov.hk/eng/index.php?c=search&m=search_by_institution&ri=100078,22.2849463996667,114.158031115423
"SUMITOMO MITSUI TRUST BANK, LIMITED","25/F, AIA CENTRAL, 1 CONNAUGHT ROAD CENTRAL, CENTRAL, HONG KONG.","1-4-1, MARUNOUCHI, CHIYODA-KU, TOKYO, 100-8233 JAPAN.",Licensed Bank,,22.2815824507353,114.161858731047
SWISSQUOTE BANK SA,"SUITES 3202-04, LEVEL 32, ICBC TOWER, 3 GARDEN ROAD, CENTRAL, HONG KONG.","CHEMIN DE LA CRETAUX 33, CASE POSTALE 391, CH-1196 GLAND, SWITZERLAND.",Local Representative Office,,22.2784271237997,114.160655725224
TAI SANG BANK LIMITED,"130-132 DES VOEUX ROAD CENTRAL, HONG KONG.",,Licensed Bank,,22.2854016015741,114.154772096388
"TAI YAU BANK, LIMITED","29/F, TAI TUNG BUILDING, 8 FLEMING ROAD, WANCHAI, HONG KONG.",,Licensed Bank,,22.2776493241388,114.174671725223
"TAIPEI FUBON COMMERCIAL BANK CO., LTD.","16/F, K11 ATELIER, VICTORIA DOCKSIDE, NO. 18 SALISBURY ROAD, TSIM SHA TSUI, KOWLOON","NO.50, SECTION 2, CHUNGSHAN N. ROAD, TAIPEI, TAIWAN.",Licensed Bank,http://apps.hkma.gov.hk/eng/index.php?c=search&m=search_by_institution&ri=100257,22.2956420879178,114.175704805808
"TAISHIN INTERNATIONAL BANK CO., LTD","6/F & 15/F ROOM NO. 1501-1506, 1510-1511 & 1512A-1512B, TOWER 5, THE GATEWAY, 15 CANTON ROAD, TSIMSHATSUI, KOWLOON.","1-2F, 44 CHUNG SHAN N. RD, SECTION 2, TAIPEI, TAIWAN.",Licensed Bank,http://apps.hkma.gov.hk/eng/index.php?c=search&m=search_by_institution&ri=100263,22.297189579118,114.168406009883
"TAIWAN BUSINESS BANK, LTD.","SUITES 2705-9, 27/F, TOWER 6, THE GATEWAY, HARBOUR CITY, KOWLOON.","NO.30 TACHENG STREET, TAIPEI 103, TAIWAN.",Licensed Bank,,22.2970933657199,114.168313825224
"TAIWAN COOPERATIVE BANK, LTD.","SUITES 1303-1310, 13/F, EVERBRIGHT CENTRE, 108 GLOUCESTER ROAD, WANCHAI, HONG KONG.","NO.225, SEC. 2, CHANG'AN EAST ROAD, SONG SHAN DIST. TAIPEI CITY 105, TAIWAN.",Licensed Bank,,22.27919112981,114.17390432508
"TAIWAN SHIN KONG COMMERCIAL BANK CO., LTD.","SUITES 1502-12, 15/F, TOWER 2, THE GATEWAY HARBOUR CITY, 25 CANTON ROAD, TSIMSHATSUI, KOWLOON","3-5F, 10F, 19-21F, 4F-1, 5F-1, 9F-1 NO. 32 AND 1, 3-5F, 10F, 19-21F, 9F-1 NO. 36, SONGREN ROAD, XINYI DISTRICT, TAIPEI, TAIWAN",Licensed Bank,http://apps.hkma.gov.hk/eng/index.php?c=search&m=search_by_institution&ri=100302,22.2997153293339,114.167964825224
TORONTO-DOMINION BANK,"SUITE 1211, TWO PACIFIC PLACE, 88 QUEENSWAY, HONG KONG.","P.O. BOX 1, TORONTO-DOMINION CENTRE, KING ST. W. AND BAY ST., TORONTO, ONTARIO,CANADA M5K 1A2.",Licensed Bank,http://apps.hkma.gov.hk/eng/index.php?c=search&m=search_by_institution&ri=100096,22.277398696504,114.164453525223
UBS AG,"52/F, TWO INTERNATIONAL FINANCE CENTRE, 8 FINANCE STREET, CENTRAL, HONG KONG.","AESCHENVORSTADT 1, 4002 BASEL, SWITZERLAND.",Licensed Bank,http://apps.hkma.gov.hk/eng/index.php?c=search&m=search_by_institution&ri=100113,22.2854833261767,114.159232786588
UCO BANK,"UNIT A & B, 2/F, ASTORIA BUILDING, 34 ASHLEY ROAD, TSIM SHA TSUI, KOWLOON","10 BIPLABI TRAILOKYA MAHARAJ SARANI, (BRABOURNE ROAD) CALCUTTA 700 001, INDIA.",Licensed Bank,,22.2977491849017,114.170647398235
UNICREDIT BANK GMBH,"76/F, THE CENTER, 99 QUEEN'S ROAD CENTRAL, HONG KONG","ARABELLASTRASSE 12, 81925 MUNICH, GERMANY",Licensed Bank,,22.284798089722,114.154682397522
"UNION BANCAIRE PRIVÉE, UBP SA","26/F, AIA CENTRAL, 1 CONNAUGHT ROAD CENTRAL, CENTRAL, HONG KONG","RUE DU RHONE 96-98, PO BOX 1320, 1211 GENEVA 1, SWITZERLAND",Licensed Bank,http://apps.hkma.gov.hk/eng/index.php?c=search&m=search_by_institution&ri=100321,22.2815154790706,114.161846467553
UNITED OVERSEAS BANK LTD.,"28/F, CHAMPION TOWER, 3 GARDEN ROAD, CENTRAL, HONG KONG","80 RAFFLES PLACE, UOB PLAZA, SINGAPORE 0104.",Licensed Bank,http://apps.hkma.gov.hk/eng/index.php?c=search&m=search_by_institution&ri=100001,22.2787069947955,114.16042845475
VIETNAM FINANCE COMPANY LIMITED,"ROOM 1601, 16/F., GOLDEN STAR BUILDING, 20 LOCKHART ROAD, HONG KONG.",,Deposit-taking Company,,22.2781023360108,114.169980428478
VP BANK LTD,"8/F, NEW WORLD TOWER II, 16-18 QUEEN'S ROAD CENTRAL, HONG KONG","FL-9490 VADUZ, AEULESTRASSE 6, LIECHTENSTEIN.",Local Representative Office,,22.2805910407075,114.157328963576
WELAB BANK LIMITED,"23/F, K11 ATELIER KING'S ROAD, 728 KING'S ROAD, QUARRY BAY, HONG KONG",,Licensed Bank,http://apps.hkma.gov.hk/eng/index.php?c=search&m=search_by_institution&ri=100328,22.2917075390105,114.207509354059
"WELLS FARGO BANK, NATIONAL ASSOCIATION","2705-2709, 27/F, THREE PACIFIC PLACE, 1 QUEEN'S ROAD EAST, WAN CHAI, HONG KONG","101 N. PHILLIPS AVENUE, SIOUX FALLS, SOUTH DAKOTA 57104, USA",Licensed Bank,,22.2770928653879,114.168214898235
WOORI BANK,"SUITE 1401, TWO PACIFIC PLACE, 88 QUEENSWAY, HONG KONG.","1-203, HOEHYON DONG, CHUNG-GU, SEOUL, KOREA.",Licensed Bank,,22.277367212418,114.164468254059
WOORI GLOBAL MARKETS ASIA LIMITED,"ROOMS 1907-1909, 19/F, GLOUCESTER TOWER, THE LANDMARK, 15 QUEEN'S ROAD CENTRAL, HONG KONG.",,Deposit-taking Company,http://apps.hkma.gov.hk/eng/index.php?c=search&m=search_by_institution&ri=300505,22.2805426813917,114.157903346365
"YAMAGUCHI BANK, LTD. (THE)","ROOM 403, 4/F FAR EAST FINANCE CENTRE, 16 HARCOURT ROAD, CENTRAL, HONG KONG","2-36, 4-CHOME, TAKEZAKI-CHO, SHIMONOSEKI JAPAN.",Local Representative Office,,22.2800624492581,114.164021903569
"YUANTA COMMERCIAL BANK CO., LTD","ROOM 2508, 25/F, TOWER 1, ADMIRALTY CENTRE, NO. 18 HARCOURT ROAD, HONG KONG","1F-10F, NO. 66 & 1F, 2F, 2F-1, 7F, 9F, NO. 68, SEC. 1, DUNHUA SOUTH ROAD, TAIPEI CITY 105, TAIWAN",Licensed Bank,,22.2795855575815,114.165151332044
ZA BANK LIMITED,"UNIT 1301, LEVEL 13, IT STREET, CYBERPORT 3, 100 CYBERPORT ROAD, HONG KONG",,Licensed Bank,http://apps.hkma.gov.hk/eng/index.php?c=search&m=search_by_institution&ri=100325,22.2607776410278,114.130002894824
